H1 CPF  1  DLR 2021 05 31 10  6512 technosat            
H2  1704205 6203    42829 2021 05 31 00 00 00 2021 06 07 00 00 00    60 1 1  0 0 0
H9
10 0 59371      0.000000  0       1815204.920       -681191.753       6686918.460
10 0 59371     60.000000  0       2092976.776      -1022655.509       6560669.566
10 0 59371    120.000000  0       2358953.313      -1362190.536       6406584.796
10 0 59371    180.000000  0       2612033.674      -1698256.125       6225306.784
10 0 59371    240.000000  0       2851183.802      -2029315.618       6017593.871
10 0 59371    300.000000  0       3075440.809      -2353843.484       5784317.127
10 0 59371    360.000000  0       3283917.011      -2670332.424       5526456.965
10 0 59371    420.000000  0       3475803.648      -2977300.510       5245099.280
10 0 59371    480.000000  0       3650374.223      -3273298.297       4941431.065
10 0 59371    540.000000  0       3806987.456      -3556915.825       4616735.582
10 0 59371    600.000000  0       3945089.871      -3826789.560       4272387.079
10 0 59371    660.000000  0       4064217.909      -4081609.180       3909845.020
10 0 59371    720.000000  0       4163999.598      -4320124.155       3530647.951
10 0 59371    780.000000  0       4244155.820      -4541150.134       3136406.969
10 0 59371    840.000000  0       4304501.109      -4743575.053       2728798.769
10 0 59371    900.000000  0       4344943.963      -4926364.927       2309558.364
10 0 59371    960.000000  0       4365486.680      -5088569.280       1880471.514
10 0 59371   1020.000000  0       4366224.726      -5229326.229       1443366.875
10 0 59371   1080.000000  0       4347345.596      -5347867.142       1000107.903
10 0 59371   1140.000000  0       4309127.183      -5443520.788        552584.592
10 0 59371   1200.000000  0       4251935.774      -5515717.033        102705.176
10 0 59371   1260.000000  0       4176223.632      -5563990.154       -347612.346
10 0 59371   1320.000000  0       4082526.078      -5587981.613       -796448.824
10 0 59371   1380.000000  0       3971458.101      -5587442.193      -1241892.546
10 0 59371   1440.000000  0       3843710.591      -5562233.569      -1682047.669
10 0 59371   1500.000000  0       3700046.275      -5512329.381      -2115042.565
10 0 59371   1560.000000  0       3541295.305      -5437815.756      -2539038.058
10 0 59371   1620.000000  0       3368350.531      -5338891.229      -2952235.510
10 0 59371   1680.000000  0       3182162.462      -5215866.089      -3352884.614
10 0 59371   1740.000000  0       2983733.993      -5069161.215      -3739290.906
10 0 59371   1800.000000  0       2774114.925      -4899306.366      -4109822.966
10 0 59371   1860.000000  0       2554396.315      -4706937.947      -4462919.288
10 0 59371   1920.000000  0       2325704.712      -4492796.249      -4797094.754
10 0 59371   1980.000000  0       2089196.322      -4257722.209      -5110946.680
10 0 59371   2040.000000  0       1846051.141      -4002653.741      -5403160.445
10 0 59371   2100.000000  0       1597467.051      -3728621.699      -5672514.705
10 0 59371   2160.000000  0       1344653.889      -3436745.426      -5917886.202
10 0 59371   2220.000000  0       1088827.562      -3128227.940      -6138254.107
10 0 59371   2280.000000  0        831204.204      -2804350.763      -6332703.946
10 0 59371   2340.000000  0        572994.420      -2466468.381      -6500431.031
10 0 59371   2400.000000  0        315397.670      -2116002.425      -6640743.403
10 0 59371   2460.000000  0         59596.806      -1754435.594      -6753064.320
10 0 59371   2520.000000  0       -193247.231      -1383305.334      -6836934.291
10 0 59371   2580.000000  0       -442000.516      -1004197.302      -6892012.648
10 0 59371   2640.000000  0       -685561.086       -618738.651      -6918078.681
10 0 59371   2700.000000  0       -922863.703       -228591.145      -6915032.302
10 0 59371   2760.000000  0      -1152884.399        164555.865      -6882894.235
10 0 59371   2820.000000  0      -1374644.769        558992.564      -6821805.808
10 0 59371   2880.000000  0      -1587216.010        952995.959      -6732028.326
10 0 59371   2940.000000  0      -1789722.669       1344837.274      -6613941.930
10 0 59371   3000.000000  0      -1981346.122       1732789.285      -6468044.038
10 0 59371   3060.000000  0      -2161327.828       2115133.730      -6294947.479
10 0 59371   3120.000000  0      -2328972.318       2490168.837      -6095378.139
10 0 59371   3180.000000  0      -2483649.823       2856216.804      -5870172.074
10 0 59371   3240.000000  0      -2624798.591       3211631.180      -5620272.290
10 0 59371   3300.000000  0      -2751926.943       3554804.248      -5346725.109
10 0 59371   3360.000000  0      -2864615.007       3884174.322      -5050676.059
10 0 59371   3420.000000  0      -2962516.101       4198232.897      -4733365.324
10 0 59371   3480.000000  0      -3045357.757       4495531.623      -4396122.778
10 0 59371   3540.000000  0      -3112942.390       4774689.063      -4040362.614
10 0 59371   3600.000000  0      -3165147.575       5034397.177      -3667577.593
10 0 59371   3660.000000  0      -3201925.974       5273427.496      -3279333.045
10 0 59371   3720.000000  0      -3223304.982       5490637.134      -2877260.550
10 0 59371   3780.000000  0      -3229386.002       5684974.451      -2463051.213
10 0 59371   3840.000000  0      -3220343.346       5855484.357      -2038448.633
10 0 59371   3900.000000  0      -3196422.739       6001313.209      -1605241.571
10 0 59371   3960.000000  0      -3157939.437       6121713.203      -1165256.364
10 0 59371   4020.000000  0      -3105276.064       6216046.223       -720349.218
10 0 59371   4080.000000  0      -3038880.180       6283787.323       -272398.454
10 0 59371   4140.000000  0      -2959261.573       6324527.831        176703.552
10 0 59371   4200.000000  0      -2866989.144       6337977.792        625058.614
10 0 59371   4260.000000  0      -2762687.469       6323967.813       1070771.010
10 0 59371   4320.000000  0      -2647033.038       6282450.264       1511955.707
10 0 59371   4380.000000  0      -2520750.292       6213499.886       1946746.486
10 0 59371   4440.000000  0      -2384607.475       6117313.857       2373303.968
10 0 59371   4500.000000  0      -2239412.290       5994211.254       2789823.498
10 0 59371   4560.000000  0      -2086007.391       5844631.979       3194542.851
10 0 59371   4620.000000  0      -1925265.765       5669135.136       3585749.740
10 0 59371   4680.000000  0      -1758085.985       5468396.829       3961789.126
10 0 59371   4740.000000  0      -1585387.392       5243207.423       4321070.220
10 0 59371   4800.000000  0      -1408105.218       4994468.293       4662073.241
10 0 59371   4860.000000  0      -1227185.590       4723188.016       4983355.836
10 0 59371   4920.000000  0      -1043580.562       4430478.092       5283559.037
10 0 59371   4980.000000  0       -858243.271       4117548.268       5561412.882
10 0 59371   5040.000000  0       -672123.124       3785701.424       5815741.712
10 0 59371   5100.000000  0       -486161.030       3436327.979       6045469.066
10 0 59371   5160.000000  0       -301284.707       3070899.916       6249622.045
10 0 59371   5220.000000  0       -118404.163       2690964.542       6427335.256
10 0 59371   5280.000000  0         61592.701       2298137.936       6577854.386
10 0 59371   5340.000000  0        237844.357       1894098.053       6700539.348
10 0 59371   5400.000000  0        409519.741       1480577.494       6794866.908
10 0 59371   5460.000000  0        575822.121       1059356.087       6860432.802
10 0 59371   5520.000000  0        735992.761        632253.313       6896953.404
10 0 59371   5580.000000  0        889314.380        201120.559       6904266.999
10 0 59371   5640.000000  0       1035114.357       -232166.852       6882334.616
10 0 59371   5700.000000  0       1172767.700       -665717.817       6831240.366
10 0 59371   5760.000000  0       1301699.777      -1097633.714       6751191.198
10 0 59371   5820.000000  0       1421388.757      -1526016.640       6642516.225
10 0 59371   5880.000000  0       1531367.768      -1948977.796       6505665.633
10 0 59371   5940.000000  0       1631226.793      -2364645.892       6341209.009
10 0 59371   6000.000000  0       1720614.253      -2771175.507       6149833.202
10 0 59371   6060.000000  0       1799238.278      -3166755.440       5932339.702
10 0 59371   6120.000000  0       1866867.671      -3549616.935       5689641.478
10 0 59371   6180.000000  0       1923332.552      -3918041.760       5422759.348
10 0 59371   6240.000000  0       1968524.687      -4270370.083       5132817.895
10 0 59371   6300.000000  0       2002397.539      -4605008.198       4821040.985
10 0 59371   6360.000000  0       2024965.998      -4920436.068       4488746.828
10 0 59371   6420.000000  0       2036305.812      -5215214.660       4137342.534
10 0 59371   6480.000000  0       2036552.646      -5487992.884       3768318.135
10 0 59371   6540.000000  0       2025900.753      -5737514.120       3383240.256
10 0 59371   6600.000000  0       2004601.359      -5962622.350       2983745.420
10 0 59371   6660.000000  0       1972960.773      -6162267.845       2571533.004
10 0 59371   6720.000000  0       1931338.228      -6335512.353       2148357.862
10 0 59371   6780.000000  0       1880143.441      -6481533.786       1716022.731
10 0 59371   6840.000000  0       1819833.880      -6599630.487       1276370.327
10 0 59371   6900.000000  0       1750911.716      -6689224.770        831275.147
10 0 59371   6960.000000  0       1673920.587      -6749865.893        382635.260
10 0 59371   7020.000000  0       1589442.164      -6781232.602        -67636.141
10 0 59371   7080.000000  0       1498092.430      -6783134.884       -517619.437
10 0 59371   7140.000000  0       1400517.792      -6755514.870       -965397.237
99
